EUTELSAT 7A             
1 28187U 04008A   25327.91436064  .00000122  00000+0  00000+0 0  9993
2 28187   5.3076  74.4628 0000771 170.2277   8.4074  1.00271396 79290
EUTELSAT 174A           
1 28924U 05052A   25327.69111037  .00000029  00000+0  00000+0 0  9993
2 28924   3.6970  79.0750 0006105 161.8958 244.7776  1.00269883 50278
EUTELSAT HOTBIRD 13B    
1 29270U 06032A   25327.94859417  .00000176  00000+0  00000+0 0  9999
2 29270   1.1290  84.5285 0003324 156.3255 196.9384  1.00275047 45247
EUTELSAT HOTBIRD 13C    
1 33459U 08065A   25327.93559409 -.00000228  00000+0  00000+0 0  9997
2 33459   2.4201  81.6239 0000778 134.0746 151.8318  1.00052982 45284
EUTELSAT 36B            
1 36101U 09065A   25327.95197419  .00000132  00000+0  00000+0 0  9999
2 36101   0.0415   0.3775 0005920 242.1932 213.8262  1.00270654 58657
EUTELSAT KA-SAT 9A      
1 37258U 10069A   25327.94382747  .00000082  00000+0  00000+0 0  9992
2 37258   0.0556 324.0693 0002233 222.7379 225.1650  1.00269833 41943
EUTELSAT 7 WEST A       
1 37816U 11051A   25327.94053411 -.00000039  00000+0  00000+0 0  9990
2 37816   0.0771  29.6714 0005921 191.1313 173.6728  1.00272803 51819
EUTELSAT 16A            
1 37836U 11057A   25327.94521413  .00000124  00000+0  00000+0 0  9994
2 37836   0.0610   0.7583 0005981 249.1592 169.5312  1.00270034  5261
